start=new Date('2022-12-13T00:00:00.000Z').valueOf();
sats=[{"CLASSIFICATION_TYPE":"U","GP_ID":"220167008","EPOCH":"2022-12-12T01:03:50.341824","OBJECT_TYPE":"PAYLOAD","APOAPSIS":"548.573","TLE_LINE1":"1 47179U 20088BK  22346.04433266  .00002430  00000-0  18203-3 0  9997","MEAN_ELEMENT_THEORY":"SGP4","DECAY_DATE":null,"NORAD_CAT_ID":"47179","FILE":"3694071","OBJECT_NAME":"STARLINK-1913","LAUNCH_DATE":"2020-11-25","EPHEMERIS_TYPE":"0","SITE":"AFETR","RCS_SIZE":"LARGE","OBJECT_ID":"2020-088BK","RA_OF_ASC_NODE":"225.2177","SEMIMAJOR_AXIS":"6925.363","ECCENTRICITY":"0.00019430","REV_AT_EPOCH":"11329","COUNTRY_CODE":"US","PERIOD":"95.592","MEAN_ANOMALY":"304.2248","MEAN_MOTION_DOT":"0.00002430","MEAN_MOTION":"15.06395348","PERIAPSIS":"545.882","INCLINATION":"53.0533","ARG_OF_PERICENTER":"55.8925","CENTER_NAME":"EARTH","TLE_LINE2":"2 47179  53.0533 225.2177 0001943  55.8925 304.2248 15.06395348113299","ELEMENT_SET_NO":"999","REF_FRAME":"TEME","BSTAR":"0.00018203000000","MEAN_MOTION_DDOT":"0.0000000000000","TIME_SYSTEM":"UTC"},{"SEMIMAJOR_AXIS":"6925.334","REV_AT_EPOCH":"11383","ECCENTRICITY":"0.00015610","RA_OF_ASC_NODE":"191.4704","MEAN_ANOMALY":"277.5524","PERIOD":"95.592","MEAN_MOTION_DOT":"0.00003949","COUNTRY_CODE":"US","TLE_LINE2":"2 47181  53.0524 191.4704 0001561  82.5642 277.5524 15.06404896113839","CENTER_NAME":"EARTH","ELEMENT_SET_NO":"999","MEAN_MOTION":"15.06404896","INCLINATION":"53.0524","PERIAPSIS":"546.118","ARG_OF_PERICENTER":"82.5642","TIME_SYSTEM":"UTC","MEAN_MOTION_DDOT":"0.0000000000000","BSTAR":"0.00028382000000","REF_FRAME":"TEME","EPOCH":"2022-12-12T21:07:23.111040","OBJECT_TYPE":"PAYLOAD","APOAPSIS":"548.280","GP_ID":"220207633","CLASSIFICATION_TYPE":"U","MEAN_ELEMENT_THEORY":"SGP4","DECAY_DATE":null,"TLE_LINE1":"1 47181U 20088BM  22346.88012860  .00003949  00000-0  28382-3 0  9990","FILE":"3695286","NORAD_CAT_ID":"47181","LAUNCH_DATE":"2020-11-25","OBJECT_NAME":"STARLINK-1927","OBJECT_ID":"2020-088BM","EPHEMERIS_TYPE":"0","RCS_SIZE":"LARGE","SITE":"AFETR"},{"NORAD_CAT_ID":"47350","FILE":"3694071","OBJECT_NAME":"STARLINK-2011","LAUNCH_DATE":"2021-01-20","OBJECT_ID":"2021-005B","EPHEMERIS_TYPE":"0","RCS_SIZE":"LARGE","SITE":"AFETR","OBJECT_TYPE":"PAYLOAD","EPOCH":"2022-12-12T10:54:18.942624","APOAPSIS":"548.371","GP_ID":"220166288","CLASSIFICATION_TYPE":"U","MEAN_ELEMENT_THEORY":"SGP4","DECAY_DATE":null,"TLE_LINE1":"1 47350U 21005B   22346.45438591  .00001872  00000-0  14453-3 0  9991","TLE_LINE2":"2 47350  53.0543 333.3791 0001673  55.7358 304.3789 15.06400332104700","CENTER_NAME":"EARTH","ELEMENT_SET_NO":"999","MEAN_MOTION":"15.06400332","PERIAPSIS":"546.054","ARG_OF_PERICENTER":"55.7358","INCLINATION":"53.0543","TIME_SYSTEM":"UTC","MEAN_MOTION_DDOT":"0.0000000000000","BSTAR":"0.00014453000000","REF_FRAME":"TEME","SEMIMAJOR_AXIS":"6925.348","REV_AT_EPOCH":"10470","ECCENTRICITY":"0.00016730","RA_OF_ASC_NODE":"333.3791","MEAN_ANOMALY":"304.3789","PERIOD":"95.592","MEAN_MOTION_DOT":"0.00001872","COUNTRY_CODE":"US"},{"OBJECT_ID":"2021-005C","RCS_SIZE":"LARGE","SITE":"AFETR","EPHEMERIS_TYPE":"0","OBJECT_NAME":"STARLINK-2017","LAUNCH_DATE":"2021-01-20","NORAD_CAT_ID":"47351","FILE":"3694071","DECAY_DATE":null,"MEAN_ELEMENT_THEORY":"SGP4","TLE_LINE1":"1 47351U 21005C   22346.28388485  .00002435  00000-0  18230-3 0  9992","APOAPSIS":"548.104","OBJECT_TYPE":"PAYLOAD","EPOCH":"2022-12-12T06:48:47.651040","GP_ID":"220166038","CLASSIFICATION_TYPE":"U","TIME_SYSTEM":"UTC","MEAN_MOTION_DDOT":"0.0000000000000","BSTAR":"0.00018230000000","REF_FRAME":"TEME","ELEMENT_SET_NO":"999","TLE_LINE2":"2 47351  53.0560 294.1315 0001295  67.8311 292.2816 15.06402056105239","CENTER_NAME":"EARTH","INCLINATION":"53.0560","PERIAPSIS":"546.310","ARG_OF_PERICENTER":"67.8311","MEAN_MOTION":"15.06402056","MEAN_MOTION_DOT":"0.00002435","MEAN_ANOMALY":"292.2816","PERIOD":"95.592","COUNTRY_CODE":"US","REV_AT_EPOCH":"10523","ECCENTRICITY":"0.00012950","SEMIMAJOR_AXIS":"6925.342","RA_OF_ASC_NODE":"294.1315"},{"TLE_LINE2":"2 47352  53.0564 333.7608 0001610  62.2264 297.8888 15.06393098104689","CENTER_NAME":"EARTH","ELEMENT_SET_NO":"999","MEAN_MOTION":"15.06393098","PERIAPSIS":"546.120","INCLINATION":"53.0564","ARG_OF_PERICENTER":"62.2264","TIME_SYSTEM":"UTC","MEAN_MOTION_DDOT":"0.0000000000000","BSTAR":"0.00004584400000","REF_FRAME":"TEME","SEMIMAJOR_AXIS":"6925.370","REV_AT_EPOCH":"10468","ECCENTRICITY":"0.00016100","RA_OF_ASC_NODE":"333.7608","MEAN_ANOMALY":"297.8888","PERIOD":"95.593","MEAN_MOTION_DOT":"0.00000401","COUNTRY_CODE":"US","NORAD_CAT_ID":"47352","FILE":"3694071","LAUNCH_DATE":"2021-01-20","OBJECT_NAME":"STARLINK-2034","OBJECT_ID":"2021-005D","EPHEMERIS_TYPE":"0","RCS_SIZE":"LARGE","SITE":"AFETR","OBJECT_TYPE":"PAYLOAD","EPOCH":"2022-12-12T08:52:14.907936","APOAPSIS":"548.350","GP_ID":"220167282","CLASSIFICATION_TYPE":"U","MEAN_ELEMENT_THEORY":"SGP4","DECAY_DATE":null,"TLE_LINE1":"1 47352U 21005D   22346.36961699  .00000401  00000-0  45844-4 0  9999"},{"FILE":"3694071","NORAD_CAT_ID":"47353","LAUNCH_DATE":"2021-01-20","OBJECT_NAME":"STARLINK-2045","OBJECT_ID":"2021-005E","EPHEMERIS_TYPE":"0","SITE":"AFETR","RCS_SIZE":"LARGE","EPOCH":"2022-12-12T04:36:48.973536","OBJECT_TYPE":"PAYLOAD","APOAPSIS":"548.376","CLASSIFICATION_TYPE":"U","GP_ID":"220167027","MEAN_ELEMENT_THEORY":"SGP4","DECAY_DATE":null,"TLE_LINE1":"1 47353U 21005E   22346.19223349  .00003554  00000-0  25744-3 0  9992","CENTER_NAME":"EARTH","TLE_LINE2":"2 47353  53.0575 279.5599 0001626  61.5189 298.5964 15.06387988105431","ELEMENT_SET_NO":"999","MEAN_MOTION":"15.06387988","PERIAPSIS":"546.124","ARG_OF_PERICENTER":"61.5189","INCLINATION":"53.0575","MEAN_MOTION_DDOT":"0.0000000000000","TIME_SYSTEM":"UTC","REF_FRAME":"TEME","BSTAR":"0.00025744000000","SEMIMAJOR_AXIS":"6925.385","ECCENTRICITY":"0.00016260","REV_AT_EPOCH":"10543","RA_OF_ASC_NODE":"279.5599","PERIOD":"95.593","MEAN_ANOMALY":"298.5964","MEAN_MOTION_DOT":"0.00003554","COUNTRY_CODE":"US"},{"INCLINATION":"53.0561","PERIAPSIS":"546.224","ARG_OF_PERICENTER":"77.0225","MEAN_MOTION":"15.06397272","ELEMENT_SET_NO":"999","CENTER_NAME":"EARTH","TLE_LINE2":"2 47354  53.0561 299.7764 0001441  77.0225 283.0925 15.06397272105144","REF_FRAME":"TEME","BSTAR":"0.00022187000000","MEAN_MOTION_DDOT":"0.0000000000000","TIME_SYSTEM":"UTC","RA_OF_ASC_NODE":"299.7764","ECCENTRICITY":"0.00014410","REV_AT_EPOCH":"10514","SEMIMAJOR_AXIS":"6925.357","COUNTRY_CODE":"US","MEAN_MOTION_DOT":"0.00003025","PERIOD":"95.592","MEAN_ANOMALY":"283.0925","LAUNCH_DATE":"2021-01-20","OBJECT_NAME":"STARLINK-2046","FILE":"3694071","NORAD_CAT_ID":"47354","SITE":"AFETR","RCS_SIZE":"LARGE","EPHEMERIS_TYPE":"0","OBJECT_ID":"2021-005F","CLASSIFICATION_TYPE":"U","GP_ID":"220165788","APOAPSIS":"548.220","OBJECT_TYPE":"PAYLOAD","EPOCH":"2022-12-12T03:19:50.492640","TLE_LINE1":"1 47354U 21005F   22346.13877885  .00003025  00000-0  22187-3 0  9998","DECAY_DATE":null,"MEAN_ELEMENT_THEORY":"SGP4"},{"REF_FRAME":"TEME","BSTAR":"0.00033590000000","MEAN_MOTION_DDOT":"0.0000000000000","TIME_SYSTEM":"UTC","PERIAPSIS":"546.193","INCLINATION":"53.0546","ARG_OF_PERICENTER":"61.9976","MEAN_MOTION":"15.06406554","ELEMENT_SET_NO":"999","CENTER_NAME":"EARTH","TLE_LINE2":"2 47355  53.0546 284.0826 0001444  61.9976 298.1159 15.06406554105377","COUNTRY_CODE":"US","MEAN_MOTION_DOT":"0.00004726","PERIOD":"95.592","MEAN_ANOMALY":"298.1159","RA_OF_ASC_NODE":"284.0826","ECCENTRICITY":"0.00014440","REV_AT_EPOCH":"10537","SEMIMAJOR_AXIS":"6925.328","SITE":"AFETR","RCS_SIZE":"LARGE","EPHEMERIS_TYPE":"0","OBJECT_ID":"2021-005G","OBJECT_NAME":"STARLINK-2047","LAUNCH_DATE":"2021-01-20","NORAD_CAT_ID":"47355","FILE":"3694071","TLE_LINE1":"1 47355U 21005G   22346.29312769  .00004726  00000-0  33590-3 0  9990","DECAY_DATE":null,"MEAN_ELEMENT_THEORY":"SGP4","CLASSIFICATION_TYPE":"U","GP_ID":"220166538","APOAPSIS":"548.193","OBJECT_TYPE":"PAYLOAD","EPOCH":"2022-12-12T07:02:06.232416"},{"ELEMENT_SET_NO":"999","CENTER_NAME":"EARTH","TLE_LINE2":"2 47356  53.0558 304.1830 0001693  66.0428 294.0738 15.06394408105095","PERIAPSIS":"546.058","INCLINATION":"53.0558","ARG_OF_PERICENTER":"66.0428","MEAN_MOTION":"15.06394408","MEAN_MOTION_DDOT":"0.0000000000000","TIME_SYSTEM":"UTC","REF_FRAME":"TEME","BSTAR":"0.00008463900000","ECCENTRICITY":"0.00016930","REV_AT_EPOCH":"10509","SEMIMAJOR_AXIS":"6925.366","RA_OF_ASC_NODE":"304.1830","MEAN_MOTION_DOT":"0.00000979","PERIOD":"95.592","MEAN_ANOMALY":"294.0738","COUNTRY_CODE":"US","OBJECT_NAME":"STARLINK-2049","LAUNCH_DATE":"2021-01-20","NORAD_CAT_ID":"47356","FILE":"3694071","OBJECT_ID":"2021-005H","SITE":"AFETR","RCS_SIZE":"LARGE","EPHEMERIS_TYPE":"0","APOAPSIS":"548.403","EPOCH":"2022-12-12T06:32:54.858624","OBJECT_TYPE":"PAYLOAD","CLASSIFICATION_TYPE":"U","GP_ID":"220166783","DECAY_DATE":null,"MEAN_ELEMENT_THEORY":"SGP4","TLE_LINE1":"1 47356U 21005H   22346.27285716  .00000979  00000-0  84639-4 0  9997"},{"ECCENTRICITY":"0.00017320","REV_AT_EPOCH":"10468","SEMIMAJOR_AXIS":"6925.360","RA_OF_ASC_NODE":"333.8608","MEAN_MOTION_DOT":"0.00002720","PERIOD":"95.592","MEAN_ANOMALY":"300.9793","COUNTRY_CODE":"US","ELEMENT_SET_NO":"999","CENTER_NAME":"EARTH","TLE_LINE2":"2 47357  53.0557 333.8608 0001732  59.1366 300.9793 15.06396158104681","PERIAPSIS":"546.026","ARG_OF_PERICENTER":"59.1366","INCLINATION":"53.0557","MEAN_MOTION":"15.06396158","MEAN_MOTION_DDOT":"0.0000000000000","TIME_SYSTEM":"UTC","REF_FRAME":"TEME","BSTAR":"0.00020143000000","APOAPSIS":"548.425","OBJECT_TYPE":"PAYLOAD","EPOCH":"2022-12-12T08:20:24.260064","CLASSIFICATION_TYPE":"U","GP_ID":"220167527","DECAY_DATE":null,"MEAN_ELEMENT_THEORY":"SGP4","TLE_LINE1":"1 47357U 21005J   22346.34750301  .00002720  00000-0  20143-3 0  9998","LAUNCH_DATE":"2021-01-20","OBJECT_NAME":"STARLINK-2050","FILE":"3694071","NORAD_CAT_ID":"47357","OBJECT_ID":"2021-005J","SITE":"AFETR","RCS_SIZE":"LARGE","EPHEMERIS_TYPE":"0"}];
